C/2021 A6 (PANSTARRS),e,75.5979,164.0706,351.6228,8743,0.0000012,0.99909354,0.0000,05/03.0733/2021,2000,g  7.0,4.0
# From MPEC 2022-M88
C/2021 A7 (NEOWISE),e,78.1579,154.4931,355.9959,2040,0.0000107,0.99903635,0.0000,07/15.1594/2021,2000,g 10.0,4.0
# From MPEC 2023-KD6
C/2021 A9 (PANSTARRS),h,12/01.7739/2023,158.0155,314.8379,211.4666,1.001599,7.760028,2000,6.0,4.0
# From MPEC 2021-N06
C/2021 A10 (NEOWISE),e,151.9462,188.7159,82.3970,87.38054,0.0012067,0.98554924,0.0000,03/14.9600/2021,2000,g 19.0,4.0
# From MPEC 2022-L66
C/2021 B2 (PANSTARRS),e,38.0843,120.5067,334.9914,367.7406,0.0001398,0.99317014,0.0000,05/04.4470/2021,2000,g 14.0,4.0
# From MPEC 2021-N06
C/2021 B3 (NEOWISE),e,119.4783,67.2806,293.5317,34.37700,0.0048899,0.93713045,4.4969,09/16.0/2023,2000,g 13.5,4.0
# From MPEC 2023-KD6
C/2021 C1 (Rankin),e,143.0444,186.8932,336.2054,5639,0.0000023,0.99938357,0.0000,12/06.8259/2020,2000,g 11.5,4.0
# From MPEC 2021-U31
P/2021 C2 (PANSTARRS),e,21.9380,66.4579,78.7064,9.534638,0.0334771,0.48749881,31.2832,09/16.0/2023,2000,g 12.0,4.0
# From MPEC 2021-N06
C/2021 C3 (Catalina),e,122.1666,181.9215,357.0538,61.57439,0.0020399,0.96307152,1.9296,09/16.0/2023,2000,g 14.0,4.0
# From MPEC 2022-M88
C/2021 C4 (ATLAS),e,132.8526,194.2762,320.1727,49050,0.0000001,0.99990825,0.0000,01/16.9645/2021,2000,g  9.0,4.0
# From MPEC 2023-R20
C/2021 C5 (PANSTARRS),e,50.7833,323.6782,270.9226,2069,0.0000105,0.99843310,0.0000,02/11.0579/2023,2000,g  9.0,4.0
# From MPEC 2022-YB4
C/2021 C6 (Lemmon),h,11/13.1393/2021,164.6139,332.2784,203.7777,1.000548,3.277422,2000,12.0,4.0
# From MPEC 2022-F14
C/2021 D1 (SWAN),e,31.4135,311.2165,72.3211,100.8450,0.0009732,0.99104722,0.0000,02/27.7790/2021,2000,g 13.0,4.0
# From MPEC 2023-J29
C/2021 D2 (ZTF),h,02/03.9707/2022,83.8075,305.6727,125.0262,1.001670,2.946228,2000,9.0,4.0
# From MPEC 2022-UY9
A/2021 E2,e,167.4885,190.8160,342.3567,220.6468,0.0003007,0.98964950,0.0000,12/10.2837/2020,2000,g 15.0,2.0
# From MPEC 2023-J29
C/2021 E3 (ZTF),h,06/11.8798/2022,112.5434,104.4795,228.8458,1.000774,1.777269,2000,8.5,4.0
# From MPEC 2023-R20
A/2021 E4,e,116.3612,171.1686,48.2618,565.4771,0.0000733,0.99173053,0.0000,04/25.1204/2022,2000,g 13.5,22.0
# From MPEC 2022-QD9
C/2021 F1 (Lemmon-PANSTARRS),e,107.3264,203.4531,146.8412,229.6846,0.0002831,0.99566232,0.0000,04/06.8042/2022,2000,g 13.5,4.0
# From MPEC 2021-J72
C/2021 G1 (Leonard),e,131.5467,270.6981,107.4468,73.51858,0.0015635,0.95343246,1.2292,09/16.0/2023,2000,g 14.0,4.0
# From MPEC 2023-OA6
C/2021 G2 (ATLAS),e,48.4749,221.0937,343.3112,10263,0.0000009,0.99951456,0.0000,09/09.4898/2024,2000,g  5.5,4.0
# From MPEC 2022-X67
C/2021 G3 (PANSTARRS),e,102.8720,147.3996,10.5894,57100,0.0000001,0.99990928,0.0000,10/18.0512/2021,2000,g 10.5,4.0
# From MPEC 2021-Y10
P/2021 HS (PANSTARRS),e,12.1598,262.3746,46.1306,4.194638,0.1147261,0.80973844,88.4394,09/16.0/2023,2000,g 22.0,4.0
# From MPEC 2022-C56
C/2021 J1 (Maury-Attard),e,92.7188,88.3824,147.3122,26.35983,0.0072827,0.93398236,6.8357,09/16.0/2023,2000,g 15.5,4.0
# From MPEC 2023-KD6
C/2021 J2 (PANSTARRS),e,156.2134,23.3361,172.0003,116.8799,0.0007800,0.95975244,0.5647,09/16.0/2023,2000,g 12.0,4.0
# From MPEC 2021-S45
P/2021 J3 (ATLAS),e,14.5291,111.1348,125.9634,8.924713,0.0369669,0.44905892,56.7705,09/16.0/2023,2000,g  7.0,4.0
# From MPEC 2022-O08
C/2021 K1 (ATLAS),e,16.2750,140.9084,184.2795,12.66256,0.0218737,0.80261536,18.9190,09/16.0/2023,2000,g 11.0,4.0
# From MPEC 2022-O01
C/2021 K2 (MASTER),h,09/09.4795/2021,100.8668,282.2599,343.3634,1.001102,5.467903,2000,8.0,4.0
# From MPEC 2022-L66
C/2021 K3 (Catalina),h,02/03.2257/2022,134.7867,114.4686,182.0626,1.003616,5.230092,2000,10.0,4.0
# From MPEC 2021-W31
P/2021 L2 (Leonard),e,21.0668,266.6561,51.5093,4.048874,0.1209770,0.52100929,94.8295,09/16.0/2023,2000,g 17.0,4.0
# From MPEC 2023-M14
C/2021 L3 (Borisov),h,02/14.3085/2022,78.5740,344.9833,91.6187,1.003913,8.458161,2000,10.1,4.0
# From MPEC 2022-TA0
P/2021 N1 (ZTF),e,11.4944,301.1590,21.2332,2.978253,0.1917616,0.67624734,159.4828,09/16.0/2023,2000,g 19.0,4.0
# From MPEC 2023-M14
P/2021 N2 (Fuls),e,13.0612,221.7322,177.4840,6.939874,0.0539109,0.45261723,36.1721,09/16.0/2023,2000,g 10.8,4.0
# From MPEC 2022-YB4
C/2021 N3 (PANSTARRS),e,26.7422,337.4946,304.7547,149.6795,0.0005382,0.96180192,0.6044,09/16.0/2023,2000,g  8.5,4.0
# From MPEC 2022-A21
C/2021 O1 (Nishimura),e,27.5907,41.6255,74.3776,2414,0.0000083,0.99967487,0.0000,08/14.0895/2021,2000,g 10.5,4.0
# From MPEC 2022-L66
C/2021 O3 (PANSTARRS),h,04/21.0613/2022,56.7946,189.0068,299.9577,1.000051,0.286718,2000,10.5,4.0
# From MPEC 2022-CN4
C/2021 P1 (PANSTARRS),e,51.6366,359.6788,40.4765,2672,0.0000071,0.99836256,0.0000,06/02.4664/2022,2000,g 11.0,4.0
# From MPEC 2023-R20
C/2021 P2 (PANSTARRS),e,150.0636,32.0797,76.7062,3065,0.0000058,0.99834600,0.0000,01/22.8468/2023,2000,g  9.0,4.0
# From MPEC 2021-W31
P/2021 P3 (PANSTARRS),e,27.1616,358.2398,334.0958,4.412418,0.1063381,0.33895749,89.2153,09/16.0/2023,2000,g 14.0,4.0
# From MPEC 2023-A50
C/2021 P4 (ATLAS),e,56.3132,348.0864,175.8022,303.8060,0.0001861,0.99644478,0.0000,07/30.3415/2022,2000,g  9.5,4.0
# From MPEC 2023-E68
P/2021 PE20 (ATLAS),e,20.0061,99.6301,210.4707,3.745848,0.1359499,0.67020695,112.9952,09/16.0/2023,2000,g 17.0,4.0
# From MPEC 2023-FK0
C/2021 Q3 (ATLAS),e,77.7542,307.9145,114.1058,75.70775,0.0014962,0.93124880,0.8943,09/16.0/2023,2000,g  8.0,4.0
# From MPEC 2023-R20
C/2021 Q4 (Fuls),h,06/10.9138/2023,71.4760,183.3315,147.0304,1.003135,7.564763,2000,6.0,4.0
# From MPEC 2022-C56
P/2021 Q5 (ATLAS),e,10.7403,239.7463,180.9305,3.286697,0.1654111,0.62461214,123.4488,09/16.0/2023,2000,g 15.0,4.0
# From MPEC 2023-R20
C/2021 Q6 (PANSTARRS),h,03/24.4911/2024,161.8469,133.5366,140.9911,1.000112,8.708066,2000,6.0,4.0
# From MPEC 2023-FK0
C/2021 QM45 (PANSTARRS),e,22.8208,354.5924,72.8311,373.4865,0.0001366,0.99257331,0.0000,08/13.5466/2022,2000,g 11.0,4.0
# From MPEC 2022-X67
P/2021 R1 (PANSTARRS),e,5.5194,143.3054,220.3162,8.323587,0.0410429,0.41299695,26.2324,09/16.0/2023,2000,g 11.0,4.0
# From MPEC 2022-X67
C/2021 R2 (PANSTARRS),e,134.4822,16.2983,32.4650,2896,0.0000063,0.99747388,0.0000,12/27.2035/2021,2000,g  7.5,4.0
# From MPEC 2021-W31
P/2021 R3 (PANSTARRS),e,19.9301,304.1979,2.7540,3.771878,0.1345450,0.33104720,113.4475,09/16.0/2023,2000,g 16.0,4.0
# From MPEC 2021-W31
P/2021 R4 (Wierzchos),e,21.0321,321.2630,56.7095,5.623398,0.0739104,0.58599930,51.8790,09/16.0/2023,2000,g 16.0,4.0
# From MPEC 2022-Y15
P/2021 R5 (Rankin),e,7.8545,219.9546,167.4758,4.794473,0.0938842,0.30664737,57.4034,09/16.0/2023,2000,g 12.0,4.0
# From MPEC 2021-W31
P/2021 R6 (Groeller),e,34.9236,176.1186,220.8156,6.282448,0.0625908,0.59347786,42.8020,09/16.0/2023,2000,g 14.5,4.0
# From MPEC 2022-X67
C/2021 R7 (PANSTARRS),e,158.8568,170.1561,140.2840,859.7666,0.0000391,0.99342770,0.0000,04/16.5056/2021,2000,g 10.5,4.0
# From MPEC 2021-Y10
P/2021 R8 (Sheppard),e,2.2034,167.0264,190.8565,3.018257,0.1879619,0.29334066,133.1703,09/16.0/2023,2000,g 18.5,4.0
# From MPEC 2023-J29
C/2021 S1 (ATLAS),h,03/01.2310/2022,52.0651,299.8761,148.2066,1.002242,6.119676,2000,7.0,4.0
# From MPEC 2023-R20
C/2021 S3 (PANSTARRS),h,02/14.7176/2024,58.5335,215.6208,6.8622,1.000191,1.320131,2000,5.5,4.0
# From MPEC 2023-R20
C/2021 S4 (Tsuchinshan),e,17.4791,5.4921,72.8576,164.7114,0.0004662,0.95938702,359.9496,09/16.0/2023,2000,g  6.5,4.0
# From MPEC 2022-OB6
C/2021 T1 (Lemmon),e,140.3579,56.8257,51.5555,1459,0.0000177,0.99790247,0.0000,10/14.1845/2021,2000,g 12.5,4.0
# From MPEC 2023-A50
C/2021 T2 (Fuls),h,06/07.9474/2022,117.5398,223.2346,263.5989,1.000427,1.247536,2000,12.0,4.0
# From MPEC 2023-R20
C/2021 T4 (Lemmon),e,160.7771,257.8846,329.8223,12410,0.0000007,0.99988047,0.0000,07/31.5391/2023,2000,g  7.5,4.0
# From MPEC 2022-ED3
P/2021 U1 (Wierzchos),e,30.5531,246.7655,145.1451,8.526502,0.0395866,0.71300409,28.2986,09/16.0/2023,2000,g 14.5,4.0
# From MPEC 2022-L66
P/2021 U3 (Attard-Maury),e,69.9618,75.0875,335.2587,4.193306,0.1147808,0.54980425,79.3272,09/16.0/2023,2000,g 15.5,4.0
# From MPEC 2021-W31
C/2021 U4 (Leonard),e,152.8857,241.8085,237.3157,44.96834,0.0032685,0.96022448,2.0690,09/16.0/2023,2000,g 17.0,4.0
# From MPEC 2022-WQ9
C/2021 U5 (Catalina),e,39.0486,182.7500,321.4311,216.4393,0.0003095,0.98908828,0.0000,01/26.5886/2022,2000,g 13.0,4.0
# From MPEC 2022-CN4
C/2021 V1 (Rankin),e,71.4541,207.6525,195.1480,622.8347,0.0000634,0.99515995,0.0000,04/30.4801/2022,2000,g 13.0,4.0
# From MPEC 2023-KD6
P/2021 V2 (Fuls),e,12.6945,232.2775,259.8358,9.066134,0.0361053,0.61432719,8.5775,09/16.0/2023,2000,g 10.0,4.0
# From MPEC 2023-R20
C/2021 X1 (Maury-Attard),h,05/27.2039/2023,140.1027,10.5930,334.5725,1.000954,3.233401,2000,7.0,4.0
# From MPEC 2023-A50
A/2021 X2,h,07/08.0415/2022,137.1614,228.8216,193.2879,1.000737,2.994669,2000,16.0,2.0
# From MPEC 2023-N01
C/2021 Y1 (ATLAS),h,04/30.7177/2023,77.1913,244.7691,245.8226,1.000904,2.032424,2000,7.0,4.0
# From MPEC 2022-YN2
C/2022 A1 (Sarneczky),e,116.5167,285.5192,201.2267,348.0288,0.0001518,0.99639874,0.0000,01/31.0924/2022,2000,g 18.0,4.0
# From MPEC 2023-R20
C/2022 A2 (PANSTARRS),h,02/18.2757/2023,108.1384,171.5834,88.3732,1.000490,1.735390,2000,9.5,4.0
# From MPEC 2023-M14
C/2022 A3 (Lemmon-ATLAS),e,88.3429,325.4799,234.8477,884.5198,0.0000375,0.99581303,0.0000,09/28.8512/2023,2000,g 10.9,4.0
# From MPEC 2022-K19
P/2022 B1 (Wierzchos),e,10.9898,148.8346,325.4720,5.466360,0.0771182,0.65320381,43.7719,09/16.0/2023,2000,g 16.5,4.0
# From MPEC 2022-YB4
A/2022 B3,e,132.0517,286.1836,150.6906,802.9869,0.0000433,0.99539325,0.0000,01/17.4595/2022,2000,g 16.5,2.0
# From MPEC 2022-GA9
C/2022 B4 (Bok),e,20.0441,340.6364,152.9346,379.3450,0.0001334,0.99636687,0.0000,01/29.9394/2022,2000,g 21.0,4.0
# From MPEC 2023-J29
P/2022 BV9 (Lemmon),e,11.9323,337.3048,16.2715,4.361893,0.1081911,0.23460809,114.3554,09/16.0/2023,2000,g  9.5,4.0
# From MPEC 2023-J29
P/2022 C1 (PANSTARRS),e,4.7622,113.1303,9.3381,7.223962,0.0507623,0.44843130,34.5491,09/16.0/2023,2000,g 12.0,4.0
# From MPEC 2022-OB6
